[{"OBJECT_NAME":"STARLINK-32356","OBJECT_ID":"2024-154U","EPOCH":"2026-03-09T20:49:39.413856","MEAN_MOTION":15.30196309,"ECCENTRICITY":0.00013804,"INCLINATION":53.1589,"RA_OF_ASC_NODE":282.9086,"ARG_OF_PERICENTER":99.478,"MEAN_ANOMALY":260.6377,"EPHEMERIS_TYPE":0,"CLASSIFICATION_TYPE":"U","NORAD_CAT_ID":60921,"ELEMENT_SET_NO":999,"REV_AT_EPOCH":8637,"BSTAR":2.7207626e-5,"MEAN_MOTION_DOT":4.47e-6,"MEAN_MOTION_DDOT":0},{"OBJECT_NAME":"CZ-2C R\/B","OBJECT_ID":"2024-203E","EPOCH":"2026-03-09T21:58:29.775360","MEAN_MOTION":15.29569733,"ECCENTRICITY":0.00782655,"INCLINATION":97.3142,"RA_OF_ASC_NODE":134.7565,"ARG_OF_PERICENTER":232.0261,"MEAN_ANOMALY":127.3893,"EPHEMERIS_TYPE":0,"CLASSIFICATION_TYPE":"U","NORAD_CAT_ID":61873,"ELEMENT_SET_NO":999,"REV_AT_EPOCH":7395,"BSTAR":0.00041889655,"MEAN_MOTION_DOT":0.00013106,"MEAN_MOTION_DDOT":0}]
